{
  "properties": {
    "path": "operators/amenity/post_box",
    "skipCollection": true,
    "exclude": {
      "generic": [
        "^(buzón de )?correos$",
        "^(mail|post)\\s?(box)?$",
        "^ポスト$",
        "^郵便ポスト$"
      ]
    }
  },
  "items": [
    {
      "templateExclude": ["fedex", "upsstore"],
      "templateSource": "brands/amenity/post_office",
      "templateTags": {
        "amenity": "post_box",
        "name": "",
        "operator": "{source.tags.brand}",
        "operator:wikidata": "{source.tags.brand:wikidata}"
      }
    },
    {
      "templateSource": "operators/amenity/post_office",
      "templateTags": {
        "amenity": "post_box",
        "name": ""
      }
    },
    {
      "displayName": "FedEx",
      "id": "fedex-b58716",
      "locationSet": {"include": ["001"]},
      "note": "https://github.com/osmlab/name-suggestion-index/issues/5749",
      "tags": {
        "amenity": "post_box",
        "brand": "FedEx",
        "brand:wikidata": "Q459477",
        "operator": "FedEx",
        "operator:type": "private",
        "operator:wikidata": "Q459477"
      }
    },
    {
      "displayName": "PIN Mail",
      "id": "pinmail-225eac",
      "locationSet": {"include": ["de"]},
      "matchNames": ["pin"],
      "tags": {
        "amenity": "post_box",
        "operator": "PIN Mail",
        "operator:type": "private",
        "operator:wikidata": "Q1342288"
      }
    },
    {
      "displayName": "UPS",
      "id": "ups-b58716",
      "locationSet": {"include": ["001"]},
      "note": "https://github.com/osmlab/name-suggestion-index/issues/4866",
      "tags": {
        "amenity": "post_box",
        "brand": "UPS",
        "brand:wikidata": "Q155026",
        "official_name": "United Parcel Service",
        "operator": "UPS",
        "operator:type": "private",
        "operator:wikidata": "Q155026"
      }
    }
  ]
}
